IRIDIUM 150             
1 43257U 18030J   24108.94989822  .00000605  00000+0  20885-3 0  9995
2 43257  86.3936 260.6883 0002028  84.8724 275.2704 14.34220231316915
IRIDIUM 143             
1 43258U 18030K   24108.86109908  .00000518  00000+0  17780-3 0  9999
2 43258  86.3939 260.7868 0001804  84.0185 276.1216 14.34221245316810
IRIDIUM 161             
1 43478U 18047C   24108.86675856  .00001167  00000+0  34086-3 0  9990
2 43478  86.4492  58.7513 0002426  88.0285 272.1194 14.43280013311147
IRIDIUM 152             
1 43479U 18047D   24108.90358685  .00000730  00000+0  25363-3 0  9997
2 43479  86.3967  58.5955 0002268  82.3151 277.8302 14.34219749309211
IRIDIUM 147             
1 43480U 18047E   24108.90993024  .00000326  00000+0  10922-3 0  9997
2 43480  86.3968  58.5842 0002391  88.7117 271.4353 14.34219923309218
IRIDIUM 110             
1 43481U 18047F   24108.91627431  .00000429  00000+0  14626-3 0  9994
2 43481  86.3970  58.6528 0002688  86.9660 273.1843 14.34219435309206
IRIDIUM 162             
1 43482U 18047G   24108.86045782  .00001168  00000+0  34116-3 0  9999
2 43482  86.4491  58.6550 0002484  89.9416 270.2070 14.43291243311139
IRIDIUM 160             
1 43569U 18061A   24107.74581000  .00000527  00000+0  18106-3 0  9994
2 43569  86.4018  27.5182 0002161  96.8593 263.2849 14.34221947299934
